
# Worst residual: 114.12 km
# MJD 60631.000000 (2024 Nov 17  0:00)
C1AUGE1 = ZTF0Edd = 'Multijunk'
1 89983U 00000AAQ 24322.49919926  .00000000  00000-0  00000-0 0 25076
2 89983 023.7945 352.8821 6218638 235.3519 082.8785 00.35582799    06

# Worst residual: 83.83 km
# MJD 60632.000000 (2024 Nov 18  0:00)
C1AUGE1 = ZTF0Edd = 'Multijunk'
1 89983U 00000AAQ 24323.49919926  .00000000  00000-0  00000-0 0 25077
2 89983 023.6665 352.5915 6190820 236.5693 207.5790 00.35230466    06

# Worst residual: 147.80 km
# MJD 60633.000000 (2024 Nov 19  0:00)
C1AUGE1 = ZTF0Edd = 'Multijunk'
1 89983U 00000AAQ 24324.49919926  .00000000  00000-0  00000-0 0 25078
2 89983 023.6488 352.2802 6211058 238.3904 332.9223 00.36146753    03

# Worst residual: 101.80 km
# MJD 60634.000000 (2024 Nov 20  0:00)
C1AUGE1 = ZTF0Edd = 'Multijunk'
1 89983U 00000AAQ 24325.49919926  .00000000  00000-0  00000-0 0 25079
2 89983 023.6033 352.2528 6196047 239.9520 100.7205 00.35426791    08

# Worst residual: 81.59 km
# MJD 60635.000000 (2024 Nov 21  0:00)
C1AUGE1 = ZTF0Edd = 'Multijunk'
1 89983U 00000AAQ 24326.49919926  .00000000  00000-0  00000-0 0 25070
2 89983 023.4945 351.8952 6188029 241.1180 225.2227 00.35250219    09

# Worst residual: 148.20 km
# MJD 60636.000000 (2024 Nov 22  0:00)
C1AUGE1 = ZTF0Edd = 'Multijunk'
1 89983U 00000AAQ 24327.49919926  .00000000  00000-0  00000-0 0 25071
2 89983 023.5010 351.6282 6203379 242.9669 351.3674 00.36348320    03

# Worst residual: 106.19 km
# MJD 60637.000000 (2024 Nov 23  0:00)
C1AUGE1 = ZTF0Edd = 'Multijunk'
1 89983U 00000AAQ 24328.49919926  .00000000  00000-0  00000-0 0 25072
2 89983 023.4317 351.5500 6198521 244.5498 118.4074 00.35312611    03

# Worst residual: 80.39 km
# MJD 60638.000000 (2024 Nov 24  0:00)
C1AUGE1 = ZTF0Edd = 'Multijunk'
1 89983U 00000AAQ 24329.49919926  .00000000  00000-0  00000-0 0 25073
2 89983 023.3513 351.1668 6201052 245.7100 242.7493 00.35268044    04

# Worst residual: 96.14 km
# MJD 60639.000000 (2024 Nov 25  0:00)
C1AUGE1 = ZTF0Edd = 'Multijunk'
1 89983U 00000AAQ 24330.49919926  .00000000  00000-0  00000-0 0 25075
2 89983 023.3730 350.9433 6213696 247.4977 009.6932 00.36372261    06

# Worst residual: 110.35 km
# MJD 60640.000000 (2024 Nov 26  0:00)
C1AUGE1 = ZTF0Edd = 'Multijunk'
1 89983U 00000AAQ 24331.49919926  .00000000  00000-0  00000-0 0 25076
2 89983 023.2897 350.8160 6210384 249.1956 135.7203 00.35224537    05

# Worst residual: 93.02 km
# MJD 60641.000000 (2024 Nov 27  0:00)
C1AUGE1 = ZTF0Edd = 'Multijunk'
1 89983U 00000AAQ 24332.49919926  .00000000  00000-0  00000-0 0 25077
2 89983 023.2416 350.4276 6221141 250.3583 260.0645 00.35319374    05

# Worst residual: 171.47 km
# MJD 60642.000000 (2024 Nov 28  0:00)
C1AUGE1 = ZTF0Edd = 'Multijunk'
1 89983U 00000AAQ 24333.49919926  .00000000  00000-0  00000-0 0 25078
2 89983 023.2671 350.2744 6242714 252.0380 027.6495 00.36197799    05

# Worst residual: 107.48 km
# MJD 60643.000000 (2024 Nov 29  0:00)
C1AUGE1 = ZTF0Edd = 'Multijunk'
1 89983U 00000AAQ 24334.49919926  .00000000  00000-0  00000-0 0 25079
2 89983 023.1775 350.0688 6227409 253.8130 152.8030 00.35162166    05

# Worst residual: 89.14 km
# MJD 60644.000000 (2024 Nov 30  0:00)
C1AUGE1 = ZTF0Edd = 'Multijunk'
1 89983U 00000AAQ 24335.49919926  .00000000  00000-0  00000-0 0 25070
2 89983 023.1564 349.6831 6249627 255.0143 277.2646 00.35404998    06

# Worst residual: 186.68 km
# MJD 60645.000000 (2024 Dec  1  0:00)
C1AUGE1 = ZTF0Edd = 'Multijunk'
1 89983U 00000AAQ 24336.49919926  .00000000  00000-0  00000-0 0 25071
2 89983 023.1614 349.5781 6277473 256.7460 045.0714 00.35910730    08

# Worst residual: 97.79 km
# MJD 60646.000000 (2024 Dec  2  0:00)
C1AUGE1 = ZTF0Edd = 'Multijunk'
1 89983U 00000AAQ 24337.49919926  .00000000  00000-0  00000-0 0 25072
2 89983 023.0948 349.3130 6252125 258.3787 169.7502 00.35125035    05

# Worst residual: 99.37 km
# MJD 60647.000000 (2024 Dec  3  0:00)
C1AUGE1 = ZTF0Edd = 'Multijunk'
1 89983U 00000AAQ 24338.49919926  .00000000  00000-0  00000-0 0 25073
2 89983 023.1054 348.9184 6286422 259.7244 294.3306 00.35534347    05

# Worst residual: 153.63 km
# MJD 60648.000000 (2024 Dec  4  0:00)
C1AUGE1 = ZTF0Edd = 'Multijunk'
1 89983U 00000AAQ 24339.49919926  .00000000  00000-0  00000-0 0 25074
2 89983 023.1080 348.8794 6305210 261.5603 062.0440 00.35612062    07

# Worst residual: 89.29 km
# MJD 60649.000000 (2024 Dec  5  0:00)
C1AUGE1 = ZTF0Edd = 'Multijunk'
1 89983U 00000AAQ 24340.49919926  .00000000  00000-0  00000-0 0 25076
2 89983 023.0417 348.5613 6284746 262.9201 186.5357 00.35108156    09

# Worst residual: 169.29 km
# MJD 60650.000000 (2024 Dec  6  0:00)
C1AUGE1 = ZTF0Edd = 'Multijunk'
1 89983U 00000AAQ 24341.49919926  .00000000  00000-0  00000-0 0 25077
2 89983 023.0721 348.2061 6328960 264.4960 311.2441 00.35749333    06
